38P/Stephan-Oterma,e,18.3806,77.9227,359.4981,11.23586,0.0261694,0.85927960,35.8389,08/12.0/2022,2000,g  3.5,12.0
# From MPEC 2022-A21
39P/Oterma,e,1.5473,298.3586,98.6866,7.325288,0.0497127,0.21995694,344.6870,08/12.0/2022,2000,g  7.0,6.0
# From MPC100283
40P/Vaisala,e,11.4682,133.7637,47.3798,4.954323,0.0893774,0.63002129,253.4282,08/12.0/2022,2000,g  5.5,12.0
# From MPC105240
41P/Tuttle-Giacobini-Kresak,e,9.2207,140.9891,62.2125,3.088363,0.1815982,0.65996664,354.1141,08/12.0/2022,2000,g 10.0,16.0
# From MPC 94283
42P/Neujmin,e,3.9915,150.1748,147.2355,4.873483,0.0916104,0.58488060,245.3748,08/12.0/2022,2000,g 13.0,6.0
# From MPEC 2022-C56
43P/Wolf-Harrington,e,9.3325,244.0564,224.0944,4.319127,0.1098020,0.43525198,240.2661,08/12.0/2022,2000,g  8.0,6.0
# From MPEC 2022-P82
44P/Reinmuth,e,5.8956,286.4468,58.0739,3.691676,0.1389532,0.42774972,15.3981,08/12.0/2022,2000,g  8.3,6.0
# From MPEC 2022-O01
45P/Honda-Mrkos-Pajdusakova,e,4.3227,87.7018,327.9094,3.055077,0.1845741,0.81760985,19.7583,08/12.0/2022,2000,g 13.5,8.0
# From MPEC 2021-O56
46P/Wirtanen,e,11.7477,82.1588,356.3269,3.091774,0.1812977,0.65857434,242.7672,08/12.0/2022,2000,g 14.0,6.0
# From MPEC 2022-HC2
47P/Ashbrook-Jackson,e,13.0413,356.9215,357.7123,4.122644,0.1177444,0.31868505,222.0007,08/12.0/2022,2000,g  1.0,11.2
# From MPEC 2021-F20
48P/Johnson,e,12.2023,110.1064,216.7175,3.501032,0.1504562,0.42729567,219.6031,08/12.0/2022,2000,g 12.4,4.0
# From MPEC 2021-F20
49P/Arend-Rigaux,e,19.0489,118.7936,332.9206,3.569597,0.1461421,0.59841370,217.7906,08/12.0/2022,2000,g 13.4,4.0
# From MPEC 2015-S97
50P/Arend,e,19.1006,355.1782,49.3292,4.087863,0.1192503,0.52947651,283.6892,08/12.0/2022,2000,g  9.5,6.0
# From NK 3014
51P-A/Harrington,e,5.4258,83.6735,269.2587,3.709189,0.1379703,0.54367299,352.6993,08/12.0/2022,2000,g 10.0,8.0
# From MPEC 2022-P82
51P-D/Harrington,e,5.4264,83.6608,269.2979,3.708363,0.1380164,0.54363123,352.9935,08/12.0/2022,2000,g 16.0,8.0
# From MPEC 2022-L66
52P/Harrington-Abell,e,10.2313,336.8361,139.5743,3.864359,0.1297442,0.54018428,40.3282,08/12.0/2022,2000,g 13.5,6.0
# From MPC100283
53P/Van Biesbroeck,e,6.6093,148.8128,134.5089,5.430686,0.0778793,0.55098163,178.7505,08/12.0/2022,2000,g  7.7,4.8
# From MPC 89011
54P/de Vico-Swift-NEAT,e,6.0646,358.8170,1.8471,3.789542,0.1336054,0.42641267,259.3092,08/12.0/2022,2000,g  9.0,4.0
# From MPC 31070
55P/Tempel-Tuttle,e,162.4843,235.4152,172.4777,10.35714,0.0295695,0.90556298,265.2810,08/12.0/2022,2000,g  9.0,4.0
# From MPC101100
56P/Slaughter-Burnham,e,8.1608,345.9923,44.0066,5.066972,0.0864135,0.50828558,191.1657,08/12.0/2022,2000,g  8.5,6.0
# From MPEC 2022-M88
57P/duToit-Neujmin-Delporte,e,2.8522,188.7715,115.1940,3.445397,0.1541151,0.50096127,46.0343,08/12.0/2022,2000,g 12.5,6.0
# From MPEC 2021-O56
58P/Jackson-Neujmin,e,13.1086,159.0746,200.5203,4.087319,0.1192742,0.66280973,96.1658,08/12.0/2022,2000,g 15.5,6.0
# From MPEC 2021-F20
59P/Kearns-Kwee,e,9.3425,312.8099,127.5039,4.484323,0.1037908,0.47579473,147.9031,08/12.0/2022,2000,g  7.0,6.0
# From MPEC 2021-F20
60P/Tsuchinshan,e,3.5817,267.4687,216.9860,3.525487,0.1488934,0.53369682,200.0561,08/12.0/2022,2000,g 11.5,6.0
# From MPEC 2022-P82
61P/Shajn-Schaldach,e,5.9997,162.9668,221.6775,3.692301,0.1389180,0.42426762,349.8781,08/12.0/2022,2000,g  6.0,10.0
# From MPC109147
62P/Tsuchinshan,e,4.7360,68.7788,47.3406,3.366176,0.1595875,0.62559117,280.2321,08/12.0/2022,2000,g  8.0,10.0
# From MPC 84320
63P/Wild,e,19.7298,358.0191,169.0176,5.610182,0.0741718,0.64932126,254.0460,08/12.0/2022,2000,g 10.5,6.0
# From MPEC 2021-F20
64P/Swift-Gehrels,e,8.9489,299.9434,97.1153,4.452770,0.1048959,0.68850763,144.3303,08/12.0/2022,2000,g 13.4,4.0
# From MPEC 2022-K19
65P/Gunn,e,9.1763,61.9951,213.9029,3.888082,0.1285585,0.24871189,226.3028,08/12.0/2022,2000,g  5.0,6.0
# From MPEC 2021-F20
66P/duToit,e,18.6398,21.7847,257.4697,6.069695,0.0659104,0.78613610,101.9359,08/12.0/2022,2000,g 15.0,4.0
# From MPEC 2022-P82
67P/Churyumov-Gerasimenko,e,3.8718,36.3300,22.1445,3.456681,0.1533611,0.64978488,43.3880,08/12.0/2022,2000,g 11.0,4.0
# From MPEC 2022-H04
68P/Klemola,e,11.1116,175.0450,153.2228,4.957678,0.0892867,0.63742293,89.9003,08/12.0/2022,2000,g 12.7,4.0
# From MPC114607
69P/Taylor,e,22.0411,104.8111,343.3947,3.885234,0.1286999,0.41359992,159.9388,08/12.0/2022,2000,g  9.5,12.0
# From MPEC 2022-P82
70P/Kojima,e,6.5977,119.2637,1.8119,3.677951,0.1397318,0.45384411,39.3933,08/12.0/2022,2000,g 11.0,6.0
# From MPEC 2022-M88
71P/Clark,e,9.4378,59.3946,209.0675,3.138938,0.1772271,0.49384889,330.9706,08/12.0/2022,2000,g  9.8,6.0
# From MPC 89011
72P/Denning-Fujikawa,e,10.9483,26.7003,346.7195,4.308412,0.1102118,0.81865342,326.0674,08/12.0/2022,2000,g 17.5,10.0
# From MPEC 2022-P82
73P/Schwassmann-Wachmann,e,11.2278,69.6101,199.4891,3.092015,0.1812766,0.68533047,357.5001,08/12.0/2022,2000,g 11.5,6.0
# From MPC106348
73P-T/Schwassmann-Wachmann,e,11.2298,69.6129,199.4691,3.093492,0.1811468,0.68552851,357.2457,08/12.0/2022,2000,g 11.5,6.0
# From MPEC 2022-P18
73P-BU/Schwassmann-Wachmann,e,11.0695,70.6770,199.8748,2.875932,0.2020860,0.66606161,357.3974,08/12.0/2022,2000,g 19.0,4.0
# From MPEC 2022-P18
73P-BV/Schwassmann-Wachmann,e,11.2463,69.4536,199.3239,3.167957,0.1747975,0.69230147,357.7355,08/12.0/2022,2000,g 19.0,4.0
# From MPEC 2022-L66
74P/Smirnova-Chernykh,e,6.1487,57.4801,134.6776,4.539016,0.1019205,0.10556412,156.4024,08/12.0/2022,2000,g  5.0,6.0
# From MPEC 2022-K19
76P/West-Kohoutek-Ikemura,e,30.4745,84.1054,359.9369,3.471071,0.1524084,0.53851831,155.5800,08/12.0/2022,2000,g  8.0,12.0
# From MPEC 2022-M21
77P/Longmore,e,24.3187,14.7686,196.7596,3.623650,0.1428844,0.35187734,326.5357,08/12.0/2022,2000,g  7.0,8.0
# From MPEC 2021-O56
78P/Gehrels,e,6.2557,210.5158,192.6352,3.737475,0.1364070,0.46270207,167.2811,08/12.0/2022,2000,g  5.5,8.0
# From MPC 94675
79P/du Toit-Hartley,e,3.1482,280.5252,281.7802,2.943416,0.1951761,0.61900545,279.1133,08/12.0/2022,2000,g 16.0,4.0
# From MPEC 2014-P41
80P/Peters-Hartley,e,29.9223,259.7985,339.2472,4.024311,0.1220863,0.59861395,345.4881,08/12.0/2022,2000,g  9.0,4.0
# From MPEC 2022-P82
81P/Wild,e,3.2366,136.0989,41.6380,3.453721,0.1535583,0.53719336,340.7076,08/12.0/2022,2000,g  7.0,6.0
# From MPC133426
82P/Gehrels,e,1.1291,239.3183,226.4229,4.133756,0.1172700,0.12189092,177.1754,08/12.0/2022,2000,g 15.0,4.0
# From MPEC 2020-FB5
84P/Giclas,e,7.5505,108.1531,281.6068,3.549700,0.1473725,0.51601114,117.7289,08/12.0/2022,2000,g  9.5,8.0
# From MPEC 2022-OB6
86P/Wild,e,15.4748,72.3537,179.4363,3.601731,0.1441907,0.37229167,26.7211,08/12.0/2022,2000,g 11.0,6.0
# From MPEC 2020-SI8
87P/Bus,e,2.8851,180.7165,27.4889,3.462157,0.1529973,0.40370006,123.2895,08/12.0/2022,2000,g  7.2,10.0
# From MPEC 2022-ED3
88P/Howell,e,4.3825,56.6745,235.9309,3.105808,0.1800703,0.56388162,123.2759,08/12.0/2022,2000,g 11.0,6.0
# From MPC100283
89P/Russell,e,12.0709,41.3513,250.3955,3.753677,0.1355248,0.40826095,279.7050,08/12.0/2022,2000,g 11.5,6.0
# From MPEC 2022-K19
90P/Gehrels,e,9.6512,13.2054,29.0517,6.051172,0.0662132,0.51083643,124.3524,08/12.0/2022,2000,g  8.5,6.0
# From MPEC 2021-S45
91P/Russell,e,14.1064,247.1653,355.6986,3.904128,0.1277668,0.33342739,81.6132,08/12.0/2022,2000,g  7.5,6.0
# From MPEC 2014-J58
92P/Sanguin,e,19.5082,181.3616,163.7965,5.343230,0.0797992,0.66105483,216.6573,08/12.0/2022,2000,g 12.0,6.0
# From NK 2707
93P/Lovas,e,12.2034,339.6415,74.8214,4.380615,0.1074983,0.61335950,213.7895,08/12.0/2022,2000,g  9.0,4.0
# From MPEC 2021-Y10
94P/Russell,e,6.1879,70.8579,92.4344,3.508403,0.1499822,0.36523401,317.6828,08/12.0/2022,2000,g  9.0,6.0
# From MPC 75717
95P/Chiron,e,6.9208,209.2995,339.5307,13.71136,0.0194126,0.37626962,188.9030,08/12.0/2022,2000,g  6.5,2.0
# From MPEC 2017-T14
96P/Machholz,e,57.5059,93.9568,14.7488,3.030044,0.1868661,0.96157777,327.8426,08/12.0/2022,2000,g  9.0,4.0
# From MPEC 2022-C56
97P/Metcalf-Brewington,e,17.9520,184.0769,229.9828,4.760201,0.0949000,0.46004251,16.8361,08/12.0/2022,2000,g  5.5,6.0
# From MPEC 2021-W31
98P/Takamizawa,e,10.5606,114.6853,157.8219,3.794658,0.1333353,0.56221643,77.9095,08/12.0/2022,2000,g  9.0,8.0
# From MPEC 2022-P82
99P/Kowal,e,4.3398,28.1015,174.9004,6.103949,0.0653563,0.22901513,7.9518,08/12.0/2022,2000,g  4.5,6.0
# From MPEC 2022-OB6
100P/Hartley,e,25.5662,37.6871,181.9728,3.432067,0.1550138,0.41212361,0.1620,08/12.0/2022,2000,g  9.0,8.0
# From MPEC 2022-K19
101P/Chernykh,e,5.0515,116.2149,277.7405,5.807243,0.0704286,0.59632156,66.3462,08/12.0/2022,2000,g 10.0,4.8
# From MPEC 2022-C56
102P/Shoemaker,e,25.8839,339.3666,20.6162,3.815393,0.1322498,0.45717454,74.9071,08/12.0/2022,2000,g  6.5,8.0
# From MPEC 2018-HA5
103P/Hartley,e,13.6093,219.7471,181.2901,3.475267,0.1521324,0.69366693,295.1076,08/12.0/2022,2000,g  8.5,8.0
# From MPEC 2022-P82
104P/Kowal,e,5.7020,207.2073,227.2528,3.208122,0.1715251,0.66553768,36.4267,08/12.0/2022,2000,g 16.0,4.0
# From MPC109147
105P/Singer Brewster,e,9.1685,192.3974,46.4594,3.468868,0.1525536,0.40894038,223.4457,08/12.0/2022,2000,g 11.5,6.0
# From MPEC 2022-GA9
106P/Schuster,e,19.5364,48.8757,353.6990,3.764450,0.1349434,0.59388875,48.3338,08/12.0/2022,2000,g 14.0,4.8
# From MPEC 2015-M77
107P/Wilson-Harrington,e,2.7992,266.7771,95.4417,2.624972,0.2317486,0.63175286,357.0653,08/12.0/2022,2000,g  9.0,4.0
# From MPEC 2022-P82
108P/Ciffreo,e,11.4362,50.2826,354.4524,3.739832,0.1362780,0.55602014,45.7689,08/12.0/2022,2000,g  8.0,12.0
# From  105, 420
109P/Swift-Tuttle,e,113.8688,139.1310,153.0080,26.18207,0.0073570,0.96262210,79.7248,08/12.0/2022,2000,g  4.0,6.0
# From MPEC 2022-P82
110P/Hartley,e,11.7050,287.5296,167.4516,3.603485,0.1440854,0.31854833,42.8901,08/12.0/2022,2000,g  1.0,12.0
# From MPC 75718
111P/Helin-Roman-Crockett,e,4.2260,89.7585,1.0196,4.149920,0.1165855,0.10661936,49.2171,08/12.0/2022,2000,g  5.0,8.0
# From MPEC 2021-S45
112P/Urata-Niijima,e,24.2092,31.8325,21.4673,3.524781,0.1489381,0.59034854,136.3743,08/12.0/2022,2000,g 14.0,6.0
# From MPEC 2022-D36
